FLOCK 4G-18             
1 62680U 25009BZ  26068.19114186  .00011766  00000+0  44319-3 0  9995
2 62680  97.4054 150.5008 0004100 335.7331  24.3715 15.27241676121267
STARLINK-33668          
1 63402U 25065D   26068.46037319  .00022295  00000+0  81706-3 0  9992
2 63402  42.9904 108.4811 0001442  73.3421 286.7589 15.27588199 52804
